CCSDS_OMM_VERS = 2.0
CREATION_DATE  = 
ORIGINATOR     = 

OBJECT_NAME    = STARLINK-36809
OBJECT_ID      = 2026-036AB
CENTER_NAME    = EARTH
REF_FRAME      = TEME
TIME_SYSTEM    = UTC
MEAN_ELEMENT_THEORY = SGP/SGP4

EPOCH          = 2026-03-17T06:00:02.000160
MEAN_MOTION    = 15.55311364
ECCENTRICITY   = .00015779
INCLINATION    = 43.0000
RA_OF_ASC_NODE = 203.9681
ARG_OF_PERICENTER = 264.9440
MEAN_ANOMALY   = 40.0633

EPHEMERIS_TYPE = 0
CLASSIFICATION_TYPE = U
NORAD_CAT_ID   = 67929
ELEMENT_SET_NO = 999
REV_AT_EPOCH   = 486
BSTAR          = -.30095456E-1
MEAN_MOTION_DOT = -.1855333E-1
MEAN_MOTION_DDOT = 0

CCSDS_OMM_VERS = 2.0
CREATION_DATE  = 
ORIGINATOR     = 

OBJECT_NAME    = STARLINK-36865
OBJECT_ID      = 2026-036AC
CENTER_NAME    = EARTH
REF_FRAME      = TEME
TIME_SYSTEM    = UTC
MEAN_ELEMENT_THEORY = SGP/SGP4

EPOCH          = 2026-03-17T06:00:02.000160
MEAN_MOTION    = 15.59927094
ECCENTRICITY   = .00017033
INCLINATION    = 43.0003
RA_OF_ASC_NODE = 203.7071
ARG_OF_PERICENTER = 273.8363
MEAN_ANOMALY   = 136.3675

EPHEMERIS_TYPE = 0
CLASSIFICATION_TYPE = U
NORAD_CAT_ID   = 67930
ELEMENT_SET_NO = 999
REV_AT_EPOCH   = 486
BSTAR          = -.25543647E-1
MEAN_MOTION_DOT = -.1874036E-1
MEAN_MOTION_DDOT = 0

CCSDS_OMM_VERS = 2.0
CREATION_DATE  = 
ORIGINATOR     = 

OBJECT_NAME    = STARLINK-36781
OBJECT_ID      = 2026-036AD
CENTER_NAME    = EARTH
REF_FRAME      = TEME
TIME_SYSTEM    = UTC
MEAN_ELEMENT_THEORY = SGP/SGP4

EPOCH          = 2026-03-17T06:00:02.000160
MEAN_MOTION    = 15.59331927
ECCENTRICITY   = .000167
INCLINATION    = 43.0000
RA_OF_ASC_NODE = 203.7461
ARG_OF_PERICENTER = 273.7407
MEAN_ANOMALY   = 120.7394

EPHEMERIS_TYPE = 0
CLASSIFICATION_TYPE = U
NORAD_CAT_ID   = 67931
ELEMENT_SET_NO = 999
REV_AT_EPOCH   = 486
BSTAR          = -.26073983E-1
MEAN_MOTION_DOT = -.1870013E-1
MEAN_MOTION_DDOT = 0

CCSDS_OMM_VERS = 2.0
CREATION_DATE  = 
ORIGINATOR     = 

OBJECT_NAME    = STARLINK-36301
OBJECT_ID      = 2026-037A
CENTER_NAME    = EARTH
REF_FRAME      = TEME
TIME_SYSTEM    = UTC
MEAN_ELEMENT_THEORY = SGP/SGP4

EPOCH          = 2026-03-17T06:44:54.535200
MEAN_MOTION    = 15.82085225
ECCENTRICITY   = .00019954
INCLINATION    = 42.9978
RA_OF_ASC_NODE = 152.0528
ARG_OF_PERICENTER = 199.5379
MEAN_ANOMALY   = 160.5416

EPHEMERIS_TYPE = 0
CLASSIFICATION_TYPE = U
NORAD_CAT_ID   = 67932
ELEMENT_SET_NO = 999
REV_AT_EPOCH   = 445
BSTAR          = .74838759E-3
MEAN_MOTION_DOT = .160528E-2
MEAN_MOTION_DDOT = 0

CCSDS_OMM_VERS = 2.0
CREATION_DATE  = 
ORIGINATOR     = 

OBJECT_NAME    = STARLINK-36852
OBJECT_ID      = 2026-037B
CENTER_NAME    = EARTH
REF_FRAME      = TEME
TIME_SYSTEM    = UTC
MEAN_ELEMENT_THEORY = SGP/SGP4

EPOCH          = 2026-03-17T06:00:02.000160
MEAN_MOTION    = 15.67724958
ECCENTRICITY   = .00012193
INCLINATION    = 42.9994
RA_OF_ASC_NODE = 152.4540
ARG_OF_PERICENTER = 278.8342
MEAN_ANOMALY   = 179.8232

EPHEMERIS_TYPE = 0
CLASSIFICATION_TYPE = U
NORAD_CAT_ID   = 67933
ELEMENT_SET_NO = 999
REV_AT_EPOCH   = 441
BSTAR          = -.19297818E-1
MEAN_MOTION_DOT = -.192617E-1
MEAN_MOTION_DDOT = 0

CCSDS_OMM_VERS = 2.0
CREATION_DATE  = 
ORIGINATOR     = 

OBJECT_NAME    = STARLINK-36861
OBJECT_ID      = 2026-037C
CENTER_NAME    = EARTH
REF_FRAME      = TEME
TIME_SYSTEM    = UTC
MEAN_ELEMENT_THEORY = SGP/SGP4

EPOCH          = 2026-03-17T05:11:58.458912
MEAN_MOTION    = 15.81347431
ECCENTRICITY   = .00015392
INCLINATION    = 42.9980
RA_OF_ASC_NODE = 152.4288
ARG_OF_PERICENTER = 274.3291
MEAN_ANOMALY   = 85.7405

EPHEMERIS_TYPE = 0
CLASSIFICATION_TYPE = U
NORAD_CAT_ID   = 67934
ELEMENT_SET_NO = 999
REV_AT_EPOCH   = 444
BSTAR          = -.30934846E-2
MEAN_MOTION_DOT = -.590592E-2
MEAN_MOTION_DDOT = 0

CCSDS_OMM_VERS = 2.0
CREATION_DATE  = 
ORIGINATOR     = 

OBJECT_NAME    = STARLINK-36860
OBJECT_ID      = 2026-037D
CENTER_NAME    = EARTH
REF_FRAME      = TEME
TIME_SYSTEM    = UTC
MEAN_ELEMENT_THEORY = SGP/SGP4

EPOCH          = 2026-03-17T06:00:02.000160
MEAN_MOTION    = 15.73295268
ECCENTRICITY   = .00010005
INCLINATION    = 42.9993
RA_OF_ASC_NODE = 152.2964
ARG_OF_PERICENTER = 275.7887
MEAN_ANOMALY   = 246.5058

EPHEMERIS_TYPE = 0
CLASSIFICATION_TYPE = U
NORAD_CAT_ID   = 67935
ELEMENT_SET_NO = 999
REV_AT_EPOCH   = 441
BSTAR          = -.15466268E-1
MEAN_MOTION_DOT = -.1951038E-1
MEAN_MOTION_DDOT = 0

CCSDS_OMM_VERS = 2.0
CREATION_DATE  = 
ORIGINATOR     = 

OBJECT_NAME    = STARLINK-36848
OBJECT_ID      = 2026-037E
CENTER_NAME    = EARTH
REF_FRAME      = TEME
TIME_SYSTEM    = UTC
MEAN_ELEMENT_THEORY = SGP/SGP4

EPOCH          = 2026-03-17T06:00:02.000160
MEAN_MOTION    = 15.70810331
ECCENTRICITY   = .00011195
INCLINATION    = 42.9993
RA_OF_ASC_NODE = 152.3274
ARG_OF_PERICENTER = 276.6364
MEAN_ANOMALY   = 232.9090

EPHEMERIS_TYPE = 0
CLASSIFICATION_TYPE = U
NORAD_CAT_ID   = 67936
ELEMENT_SET_NO = 999
REV_AT_EPOCH   = 441
BSTAR          = -.17137879E-1
MEAN_MOTION_DOT = -.1944085E-1
MEAN_MOTION_DDOT = 0

CCSDS_OMM_VERS = 2.0
CREATION_DATE  = 
ORIGINATOR     = 

OBJECT_NAME    = STARLINK-36370
OBJECT_ID      = 2026-037F
CENTER_NAME    = EARTH
REF_FRAME      = TEME
TIME_SYSTEM    = UTC
MEAN_ELEMENT_THEORY = SGP/SGP4

EPOCH          = 2026-03-16T14:03:19.749600
MEAN_MOTION    = 15.77571951
ECCENTRICITY   = .00067838
INCLINATION    = 42.9984
RA_OF_ASC_NODE = 156.3020
ARG_OF_PERICENTER = 282.4802
MEAN_ANOMALY   = 77.5309

EPHEMERIS_TYPE = 0
CLASSIFICATION_TYPE = U
NORAD_CAT_ID   = 67937
ELEMENT_SET_NO = 999
REV_AT_EPOCH   = 434
BSTAR          = -.25628608E-2
MEAN_MOTION_DOT = -.42076E-2
MEAN_MOTION_DDOT = 0

CCSDS_OMM_VERS = 2.0
CREATION_DATE  = 
ORIGINATOR     = 

OBJECT_NAME    = STARLINK-36371
OBJECT_ID      = 2026-037G
CENTER_NAME    = EARTH
REF_FRAME      = TEME
TIME_SYSTEM    = UTC
MEAN_ELEMENT_THEORY = SGP/SGP4

EPOCH          = 2026-03-17T06:00:02.000160
MEAN_MOTION    = 15.78072883
ECCENTRICITY   = .00009691
INCLINATION    = 42.9995
RA_OF_ASC_NODE = 152.1977
ARG_OF_PERICENTER = 263.7487
MEAN_ANOMALY   = 297.4791

EPHEMERIS_TYPE = 0
CLASSIFICATION_TYPE = U
NORAD_CAT_ID   = 67938
ELEMENT_SET_NO = 999
REV_AT_EPOCH   = 441
BSTAR          = -.12541156E-1
MEAN_MOTION_DOT = -.1916781E-1
MEAN_MOTION_DDOT = 0

CCSDS_OMM_VERS = 2.0
CREATION_DATE  = 
ORIGINATOR     = 

OBJECT_NAME    = STARLINK-36246
OBJECT_ID      = 2026-037H
CENTER_NAME    = EARTH
REF_FRAME      = TEME
TIME_SYSTEM    = UTC
MEAN_ELEMENT_THEORY = SGP/SGP4

EPOCH          = 2026-03-17T06:00:02.000160
MEAN_MOTION    = 15.71617682
ECCENTRICITY   = .00011262
INCLINATION    = 42.9992
RA_OF_ASC_NODE = 152.2875
ARG_OF_PERICENTER = 272.8700
MEAN_ANOMALY   = 252.7244

EPHEMERIS_TYPE = 0
CLASSIFICATION_TYPE = U
NORAD_CAT_ID   = 67939
ELEMENT_SET_NO = 999
REV_AT_EPOCH   = 432
BSTAR          = -.16592169E-1
MEAN_MOTION_DOT = -.1947612E-1
MEAN_MOTION_DDOT = 0

CCSDS_OMM_VERS = 2.0
CREATION_DATE  = 
ORIGINATOR     = 

OBJECT_NAME    = STARLINK-36907
OBJECT_ID      = 2026-037J
CENTER_NAME    = EARTH
REF_FRAME      = TEME
TIME_SYSTEM    = UTC
MEAN_ELEMENT_THEORY = SGP/SGP4

EPOCH          = 2026-03-17T06:34:07.482144
MEAN_MOTION    = 15.82065575
ECCENTRICITY   = .0001048
INCLINATION    = 42.9984
RA_OF_ASC_NODE = 151.9917
ARG_OF_PERICENTER = 228.9867
MEAN_ANOMALY   = 131.0915

EPHEMERIS_TYPE = 0
CLASSIFICATION_TYPE = U
NORAD_CAT_ID   = 67940
ELEMENT_SET_NO = 999
REV_AT_EPOCH   = 445
BSTAR          = .4927317E-3
MEAN_MOTION_DOT = .104722E-2
MEAN_MOTION_DDOT = 0

